{
    "links": {
        "self": "http://www.neowsapp.com/rest/v1/neo/3802058?api_key=iIulBulltgU6a56xZRHN4H3l9WmuAYTsLGpBGhQ2"
    },
    "id": "3802058",
    "neo_reference_id": "3802058",
    "name": "(2018 FY3)",
    "designation": "2018 FY3",
    "nasa_jpl_url": "http://ssd.jpl.nasa.gov/sbdb.cgi?sstr=3802058",
    "absolute_magnitude_h": 26.2,
    "estimated_diameter": {
        "kilometers": {
            "estimated_diameter_min": 0.0152951935,
            "estimated_diameter_max": 0.0342010925
        },
        "meters": {
            "estimated_diameter_min": 15.2951935344,
            "estimated_diameter_max": 34.201092472
        },
        "miles": {
            "estimated_diameter_min": 0.0095039897,
            "estimated_diameter_max": 0.021251567
        },
        "feet": {
            "estimated_diameter_min": 50.1810827555,
            "estimated_diameter_max": 112.2083122258
        }
    },
    "is_potentially_hazardous_asteroid": false,
    "close_approach_data": [
        {
            "close_approach_date": "2018-03-18",
            "close_approach_date_full": "2018-Mar-18 08:12",
            "epoch_date_close_approach": 1521360720000,
            "relative_velocity": {
                "kilometers_per_second": "7.8846577891",
                "kilometers_per_hour": "28384.7680406744",
                "miles_per_hour": "17637.1910083846"
            },
            "miss_distance": {
                "astronomical": "0.0327189599",
                "lunar": "12.7276754011",
                "kilometers": "4894686.709655413",
                "miles": "3041417.2889861794"
            },
            "orbiting_body": "Earth"
        }
    ],
    "orbital_data": {
        "orbit_id": "2",
        "orbit_determination_date": "2018-03-23 06:29:29",
        "first_observation_date": "2018-03-20",
        "last_observation_date": "2018-03-22",
        "data_arc_in_days": 2,
        "observations_used": 16,
        "orbit_uncertainty": "8",
        "minimum_orbit_intersection": ".0265229",
        "jupiter_tisserand_invariant": "4.681",
        "epoch_osculation": "2458199.5",
        "eccentricity": ".2908092060321475",
        "semi_major_axis": "1.401953707619016",
        "inclination": "12.43053373575112",
        "ascending_node_longitude": "2.159033890933611",
        "orbital_period": "606.3158718314218",
        "perihelion_distance": ".9942526630125049",
        "perihelion_argument": "149.7212295859555",
        "aphelion_distance": "1.809654752225528",
        "perihelion_time": "2458171.993715144414",
        "mean_anomaly": "16.33185441459819",
        "mean_motion": ".5937499193491231",
        "equinox": "J2000",
        "orbit_class": {
            "orbit_class_type": "APO",
            "orbit_class_description": "Near-Earth asteroid orbits which cross the Earth’s orbit similar to that of 1862 Apollo",
            "orbit_class_range": "a (semi-major axis) > 1.0 AU; q (perihelion) < 1.017 AU"
        }
    },
    "is_sentry_object": false
}